{
  "type": "FeatureCollection",
  "features": [
    {
      "type": "Feature",
      "properties": {
        "norad_id": 66576,
        "name": "STARLINK-35814",
        "group": "last-30-days",
        "lat": 29.47362339144421,
        "lon": -135.03150738232281,
        "alt_km": 409.98318983277386,
        "timestamp": "2025-12-19T08:58:48.081908+00:00",
        "meta_object_name": "STARLINK-35814",
        "meta_object_id": "2025-268V",
        "meta_epoch": "2025-12-18T13:51:22.756608",
        "meta_mean_motion": 15.50643987,
        "meta_eccentricity": 7.852e-05,
        "meta_inclination": 42.9999,
        "meta_ra_of_asc_node": 86.9684,
        "meta_arg_of_pericenter": 254.7865,
        "meta_mean_anomaly": 105.2909,
        "meta_ephemeris_type": 0,
        "meta_classification_type": "U",
        "meta_norad_cat_id": 66576,
        "meta_element_set_no": 999,
        "meta_rev_at_epoch": 553,
        "meta_bstar": 0.0017580641,
        "meta_mean_motion_dot": 0.00104423,
        "meta_mean_motion_ddot": 0,
        "tle_line1": "1 66576U 25268V   25352.57734672  .00104423  00000+0  17581-2 0  9998",
        "tle_line2": "2 66576  42.9999  86.9684 0000785 254.7865 105.2909 15.50643987  5539"
      },
      "geometry": {
        "type": "Point",
        "coordinates": [
          -135.03150738232281,
          29.47362339144421
        ]
      }
    },
    {
      "type": "Feature",
      "properties": {
        "norad_id": 66577,
        "name": "STARLINK-35815",
        "group": "last-30-days",
        "lat": 28.463396114658515,
        "lon": -133.27928605236,
        "alt_km": 409.85627187843056,
        "timestamp": "2025-12-19T08:58:48.081920+00:00",
        "meta_object_name": "STARLINK-35815",
        "meta_object_id": "2025-268W",
        "meta_epoch": "2025-12-18T13:50:52.755072",
        "meta_mean_motion": 15.50637566,
        "meta_eccentricity": 8.26e-05,
        "meta_inclination": 42.9975,
        "meta_ra_of_asc_node": 86.9649,
        "meta_arg_of_pericenter": 201.5718,
        "meta_mean_anomaly": 158.5107,
        "meta_ephemeris_type": 0,
        "meta_classification_type": "U",
        "meta_norad_cat_id": 66577,
        "meta_element_set_no": 999,
        "meta_rev_at_epoch": 553,
        "meta_bstar": 0.0011034269,
        "meta_mean_motion_dot": 0.00065066,
        "meta_mean_motion_ddot": 0,
        "tle_line1": "1 66577U 25268W   25352.57699948  .00065066  00000+0  11034-2 0  9991",
        "tle_line2": "2 66577  42.9975  86.9649 0000826 201.5718 158.5107 15.50637566  5535"
      },
      "geometry": {
        "type": "Point",
        "coordinates": [
          -133.27928605236,
          28.463396114658515
        ]
      }
    },
    {
      "type": "Feature",
      "properties": {
        "norad_id": 66578,
        "name": "STARLINK-35743",
        "group": "last-30-days",
        "lat": 27.474895912244637,
        "lon": -131.62556640716346,
        "alt_km": 411.9791951668494,
        "timestamp": "2025-12-19T08:58:48.081930+00:00",
        "meta_object_name": "STARLINK-35743",
        "meta_object_id": "2025-268X",
        "meta_epoch": "2025-12-18T13:50:23.446464",
        "meta_mean_motion": 15.50594613,
        "meta_eccentricity": 0.00029451,
        "meta_inclination": 42.9988,
        "meta_ra_of_asc_node": 86.9631,
        "meta_arg_of_pericenter": 282.0124,
        "meta_mean_anomaly": 78.0406,
        "meta_ephemeris_type": 0,
        "meta_classification_type": "U",
        "meta_norad_cat_id": 66578,
        "meta_element_set_no": 999,
        "meta_rev_at_epoch": 553,
        "meta_bstar": 0.0013255776,
        "meta_mean_motion_dot": 0.00078256,
        "meta_mean_motion_ddot": 0,
        "tle_line1": "1 66578U 25268X   25352.57666026  .00078256  00000+0  13256-2 0  9996",
        "tle_line2": "2 66578  42.9988  86.9631 0002945 282.0124  78.0406 15.50594613  5533"
      },
      "geometry": {
        "type": "Point",
        "coordinates": [
          -131.62556640716346,
          27.474895912244637
        ]
      }
    },
    {
      "type": "Feature",
      "properties": {
        "norad_id": 66579,
        "name": "STARLINK-35868",
        "group": "last-30-days",
        "lat": 26.337645682392058,
        "lon": -129.8005849014582,
        "alt_km": 411.27970859557627,
        "timestamp": "2025-12-19T08:58:48.081942+00:00",
        "meta_object_name": "STARLINK-35868",
        "meta_object_id": "2025-268Y",
        "meta_epoch": "2025-12-18T15:22:39.072864",
        "meta_mean_motion": 15.50625556,
        "meta_eccentricity": 0.00020922,
        "meta_inclination": 42.9973,
        "meta_ra_of_asc_node": 86.585,
        "meta_arg_of_pericenter": 263.712,
        "meta_mean_anomaly": 96.3502,
        "meta_ephemeris_type": 0,
        "meta_classification_type": "U",
        "meta_norad_cat_id": 66579,
        "meta_element_set_no": 999,
        "meta_rev_at_epoch": 554,
        "meta_bstar": 0.0013121084,
        "meta_mean_motion_dot": 0.00077531,
        "meta_mean_motion_ddot": 0,
        "tle_line1": "1 66579U 25268Y   25352.64073001  .00077531  00000+0  13121-2 0  9996",
        "tle_line2": "2 66579  42.9973  86.5850 0002092 263.7120  96.3502 15.50625556  5544"
      },
      "geometry": {
        "type": "Point",
        "coordinates": [
          -129.8005849014582,
          26.337645682392058
        ]
      }
    },
    {
      "type": "Feature",
      "properties": {
        "norad_id": 66580,
        "name": "STARLINK-35872",
        "group": "last-30-days",
        "lat": 25.2577916927669,
        "lon": -128.12897945533624,
        "alt_km": 411.64546275886823,
        "timestamp": "2025-12-19T08:58:48.081953+00:00",
        "meta_object_name": "STARLINK-35872",
        "meta_object_id": "2025-268Z",
        "meta_epoch": "2025-12-18T15:22:09.530112",
        "meta_mean_motion": 15.50605765,
        "meta_eccentricity": 0.00018805,
        "meta_inclination": 43.001,
        "meta_ra_of_asc_node": 86.5812,
        "meta_arg_of_pericenter": 278.6128,
        "meta_mean_anomaly": 81.4519,
        "meta_ephemeris_type": 0,
        "meta_classification_type": "U",
        "meta_norad_cat_id": 66580,
        "meta_element_set_no": 999,
        "meta_rev_at_epoch": 554,
        "meta_bstar": 0.0012151281,
        "meta_mean_motion_dot": 0.00071669,
        "meta_mean_motion_ddot": 0,
        "tle_line1": "1 66580U 25268Z   25352.64038808  .00071669  00000+0  12151-2 0  9992",
        "tle_line2": "2 66580  43.0010  86.5812 0001880 278.6128  81.4519 15.50605765  5548"
      },
      "geometry": {
        "type": "Point",
        "coordinates": [
          -128.12897945533624,
          25.2577916927669
        ]
      }
    },
    {
      "type": "Feature",
      "properties": {
        "norad_id": 66581,
        "name": "STARLINK-35744",
        "group": "last-30-days",
        "lat": 24.07473228727997,
        "lon": -126.36750627537349,
        "alt_km": 411.2101197091133,
        "timestamp": "2025-12-19T08:58:48.081964+00:00",
        "meta_object_name": "STARLINK-35744",
        "meta_object_id": "2025-268AA",
        "meta_epoch": "2025-12-18T13:48:54.537408",
        "meta_mean_motion": 15.50621121,
        "meta_eccentricity": 0.00010911,
        "meta_inclination": 43.0015,
        "meta_ra_of_asc_node": 86.9541,
        "meta_arg_of_pericenter": 264.1804,
        "meta_mean_anomaly": 95.8932,
        "meta_ephemeris_type": 0,
        "meta_classification_type": "U",
        "meta_norad_cat_id": 66581,
        "meta_element_set_no": 999,
        "meta_rev_at_epoch": 553,
        "meta_bstar": 0.0011663597,
        "meta_mean_motion_dot": 0.00068789,
        "meta_mean_motion_ddot": 0,
        "tle_line1": "1 66581U 25268AA  25352.57563122  .00068789  00000+0  11664-2 0  9994",
        "tle_line2": "2 66581  43.0015  86.9541 0001091 264.1804  95.8932 15.50621121  5533"
      },
      "geometry": {
        "type": "Point",
        "coordinates": [
          -126.36750627537349,
          24.07473228727997
        ]
      }
    },
    {
      "type": "Feature",
      "properties": {
        "norad_id": 66582,
        "name": "STARLINK-35746",
        "group": "last-30-days",
        "lat": 22.97039250401556,
        "lon": -124.77809405840976,
        "alt_km": 412.01263679152726,
        "timestamp": "2025-12-19T08:58:48.081974+00:00",
        "meta_object_name": "STARLINK-35746",
        "meta_object_id": "2025-268AB",
        "meta_epoch": "2025-12-18T15:21:10.244160",
        "meta_mean_motion": 15.5060137,
        "meta_eccentricity": 0.00019491,
        "meta_inclination": 43.0014,
        "meta_ra_of_asc_node": 86.5742,
        "meta_arg_of_pericenter": 279.2484,
        "meta_mean_anomaly": 80.8155,
        "meta_ephemeris_type": 0,
        "meta_classification_type": "U",
        "meta_norad_cat_id": 66582,
        "meta_element_set_no": 999,
        "meta_rev_at_epoch": 554,
        "meta_bstar": 0.0012336655,
        "meta_mean_motion_dot": 0.00072767,
        "meta_mean_motion_ddot": 0,
        "tle_line1": "1 66582U 25268AB  25352.63970190  .00072767  00000+0  12337-2 0  9998",
        "tle_line2": "2 66582  43.0014  86.5742 0001949 279.2484  80.8155 15.50601370  5541"
      },
      "geometry": {
        "type": "Point",
        "coordinates": [
          -124.77809405840976,
          22.97039250401556
        ]
      }
    }
  ]
}